satname,norad_id,inclination_deg,eccentricity,mean_motion_rev_per_day,perigee_km,apogee_km,l1,l2
STARLINK-1513,45786,53.055,0.0001407,15.06403353,546.226886399053,548.1756765914661,1 45786U 20038BJ  26025.32422116  .00004997  00000+0  35409-3 0  9991,2 45786  53.0550  31.2944 0001407  88.4754 271.6396 15.06403353310223
STARLINK-1522,46027,53.0557,0.0001723,15.06390792,546.0465368567684,548.4330216949065,1 46027U 20055A   26025.83562794 -.00001371  00000+0 -73163-4 0  9997,2 46027  53.0557 318.9999 0001723  90.1698 269.9488 15.06390792302429
STARLINK-1523,46028,53.0559,0.0001392,15.06396861,546.2571686794327,548.1851883963373,1 46028U 20055B   26025.78402703  .00000887  00000+0  78432-4 0  9998,2 46028  53.0559 319.2320 0001392  91.6945 268.4204 15.06396861302431
STARLINK-1526,46029,53.0549,0.0001499,15.06396764,546.1833645944353,548.2595870654895,1 46029U 20055C   26025.84300031  .00002056  00000+0  15689-3 0  9991,2 46029  53.0549 318.9651 0001499  87.5513 272.5647 15.06396764302436
STARLINK-1555,46032,53.0545,0.0001973,15.06440384,545.721442708671,548.4541364106299,1 46032U 20055F   26025.82826208  .00017197  00000+0  11693-2 0  9994,2 46032  53.0545 319.0310 0001973  84.6686 275.4528 15.06440384302434
STARLINK-1556,46033,53.0525,0.0001637,15.06414318,546.034003302615,548.3013480534328,1 46033U 20055G   26025.54443955  .00003344  00000+0  24319-3 0  9997,2 46033  53.0525 320.3062 0001637  69.4111 290.7053 15.06414318302366
STARLINK-1557,46034,53.0562,0.0001761,15.06419253,545.9330074047693,548.3720943845938,1 46034U 20055H   26025.08371122  .00011114  00000+0  76343-3 0  9991,2 46034  53.0562 322.3728 0001761  85.3530 274.7661 15.06419253302291
STARLINK-1558,46035,53.0535,0.0001433,15.06395577,546.2327094385055,548.2175182203282,1 46035U 20055J   26025.09107115 -.00001516  00000+0 -82919-4 0  9996,2 46035  53.0535 322.3406 0001433 107.1339 252.9807 15.06395577302327
STARLINK-1560,46036,53.0542,0.0001523,15.06419072,546.0983839387663,548.2078273049401,1 46036U 20055K   26025.54075147  .00007720  00000+0  53631-3 0  9995,2 46036  53.0542 320.3219 0001523  89.5763 270.5400 15.06419072302399
STARLINK-1567,46038,53.0542,0.0001325,15.06399828,546.2944763397809,548.1296938473306,1 46038U 20055M   26025.81720086  .00008420  00000+0  58346-3 0  9992,2 46038  53.0542 319.0796 0001325  84.3225 275.7915 15.06399828302420
STARLINK-1569,46039,53.0542,0.0002337,15.06438363,545.4755568829405,548.7124098445647,1 46039U 20055N   26025.82457324  .00027011  00000+0  18234-2 0  9994,2 46039  53.0542 319.0457 0002337  98.0498 262.0756 15.06438363302423
STARLINK-1582,46043,53.0566,0.0001065,15.06402945,546.4649832919877,547.940080612294,1 46043U 20055S   26025.83193817  .00000120  00000+0  26909-4 0  9996,2 46043  53.0566 319.0138 0001065  57.0837 303.0254 15.06402945302425
STARLINK-1591,46045,53.0546,0.0001485,15.06389842,546.2142720361035,548.2711098043073,1 46045U 20055U   26025.79140248  .00000316  00000+0  40116-4 0  9996,2 46045  53.0546 319.1995 0001485 100.2176 259.8980 15.06389842302402
STARLINK-1524,46047,53.056,0.0001872,15.06398352,545.9201826299541,548.5130350210984,1 46047U 20055W   26025.74440255  .00000265  00000+0  36715-4 0  9997,2 46047  53.0560 309.4108 0001872  92.4554 267.6649 15.06398352302551
STARLINK-1527,46048,53.0533,0.000158,15.06416432,546.0669995676326,548.2553937977855,1 46048U 20055X   26025.07724771  .00003771  00000+0  27178-3 0  9999,2 46048  53.0533 312.4005 0001580  71.4486 288.6675 15.06416432302438
STARLINK-1540,46051,53.0532,0.0001399,15.06418175,546.1870062706366,548.1247032113934,1 46051U 20055AA  26025.11041948  .00010886  00000+0  74818-3 0  9994,2 46051  53.0532 312.2467 0001399 104.0481 256.0664 15.06418175302474
STARLINK-1541,46052,53.0531,0.0001444,15.06404259,546.1984863005546,548.1985231943254,1 46052U 20055AB  26025.75914676  .00006206  00000+0  43514-3 0  9992,2 46052  53.0531 309.3393 0001444  97.0225 263.0928 15.06404259302533
STARLINK-1543,46053,53.0555,0.0001475,15.0639879,546.1937769571914,548.2367558757842,1 46053U 20055AC  26025.76283745 -.00000964  00000+0 -45835-4 0  9996,2 46053  53.0555 309.3265 0001475  98.2250 261.8907 15.06398790302561
STARLINK-1548,46054,53.0542,0.0001392,15.06392435,546.270731924029,548.1987554174666,1 46054U 20055AD  26025.50482177  .00004120  00000+0  29538-3 0  9996,2 46054  53.0542 310.4823 0001392  77.2857 282.8287 15.06392435302529
STARLINK-1554,46055,53.0502,0.0001105,15.06423681,546.3737370389581,547.9042230305458,1 46055U 20055AE  26025.49007365  .00006714  00000+0  46891-3 0  9999,2 46055  53.0502 310.5499 0001105  81.4735 278.6379 15.06423681302523
STARLINK-1564,46058,53.0552,0.0001609,15.06377383,546.1665769167676,548.3951763894756,1 46058U 20055AH  26025.76657635 -.00005052  00000+0 -32071-3 0  9994,2 46058  53.0552 309.7703 0001609  85.1660 274.9513 15.06377383302555
STARLINK-1570,46059,53.0567,0.000129,15.06392792,546.3402766944364,548.1270223220108,1 46059U 20055AJ  26025.79600869 -.00000008  00000+0  18386-4 0  9994,2 46059  53.0567 309.1755 0001290  92.4128 267.7008 15.06392792302526
STARLINK-1572,46060,53.0542,0.0001119,15.06400262,546.4358085323502,547.9857013599076,1 46060U 20055AK  26025.06249545  .00008742  00000+0  60506-3 0  9998,2 46060  53.0542 312.4668 0001119  74.0939 286.0174 15.06400262302426
STARLINK-1573,46061,53.0547,0.000165,15.06397091,546.0777896355057,548.3631576017988,1 46061U 20055AL  26025.78864041  .00002302  00000+0  17343-3 0  9999,2 46061  53.0547 309.2434 0001650  89.0620 271.0558 15.06397091302560
STARLINK-1577,46063,53.0543,0.0002197,15.06392787,545.7121608975613,548.7551687676887,1 46063U 20055AN  26025.48270010 -.00001811  00000+0 -10269-3 0  9991,2 46063  53.0543 310.5801 0002197  86.2366 273.8874 15.06392787302517
STARLINK-1583,46064,53.0542,0.0001669,15.06392834,546.0776764433313,548.3893651231674,1 46064U 20055AP  26025.78126882  .00004979  00000+0  35300-3 0  9991,2 46064  53.0542 309.2426 0001669  70.8936 289.2234 15.06392834302569
STARLINK-1525,46066,53.0547,0.0001769,15.06379327,546.0498130620545,548.5000237987952,1 46066U 20055AR  26024.71789163 -.00000370  00000+0 -59462-5 0  9992,2 46066  53.0547 294.0137 0001769  86.9829 273.1362 15.06379327302674
STARLINK-1536,46070,53.056,0.0002406,15.06407143,545.5234321627822,548.8558993543447,1 46070U 20055AV  26025.75731920  .00005307  00000+0  37487-3 0  9994,2 46070  53.0560 289.3512 0002406 100.5260 259.6000 15.06407143302844
